{
  "type": "FeatureCollection",
  "features": [
    {
      "type": "Feature",
      "properties": {
        "norad_id": 31248,
        "name": "FENGYUN 1C DEB",
        "group": "fengyun-1c-debris",
        "lat": 57.60508904311485,
        "lon": 28.872279914209205,
        "alt_km": 934.853540653552,
        "timestamp": "2025-12-12T07:43:20.795313+00:00",
        "meta_object_name": "FENGYUN 1C DEB",
        "meta_object_id": "1999-025BME",
        "meta_epoch": "2025-12-07T16:06:33.791616",
        "meta_mean_motion": 13.92771781,
        "meta_eccentricity": 0.01096947,
        "meta_inclination": 99.2646,
        "meta_ra_of_asc_node": 39.1273,
        "meta_arg_of_pericenter": 325.2285,
        "meta_mean_anomaly": 187.2095,
        "meta_ephemeris_type": 0,
        "meta_classification_type": "U",
        "meta_norad_cat_id": 31248,
        "meta_element_set_no": 999,
        "meta_rev_at_epoch": 94753,
        "meta_bstar": 0.00086996241,
        "meta_mean_motion_dot": 1.137e-05,
        "meta_mean_motion_ddot": 0,
        "tle_line1": "1 31248U 99025BME 25341.67122444  .00001137  00000+0  86996-3 0  9990",
        "tle_line2": "2 31248  99.2646  39.1273 0109694 325.2285 187.2095 13.92771781947533"
      },
      "geometry": {
        "type": "Point",
        "coordinates": [
          28.872279914209205,
          57.60508904311485
        ]
      }
    },
    {
      "type": "Feature",
      "properties": {
        "norad_id": 31250,
        "name": "FENGYUN 1C DEB",
        "group": "fengyun-1c-debris",
        "lat": -50.56556707423917,
        "lon": 6.049518856566959,
        "alt_km": 852.3540693802579,
        "timestamp": "2025-12-12T07:43:20.795324+00:00",
        "meta_object_name": "FENGYUN 1C DEB",
        "meta_object_id": "1999-025BMG",
        "meta_epoch": "2025-12-08T20:27:35.538624",
        "meta_mean_motion": 14.03062668,
        "meta_eccentricity": 0.01337435,
        "meta_inclination": 98.3877,
        "meta_ra_of_asc_node": 193.1852,
        "meta_arg_of_pericenter": 308.9519,
        "meta_mean_anomaly": 49.9792,
        "meta_ephemeris_type": 0,
        "meta_classification_type": "U",
        "meta_norad_cat_id": 31250,
        "meta_element_set_no": 999,
        "meta_rev_at_epoch": 95463,
        "meta_bstar": 0.0020656552,
        "meta_mean_motion_dot": 3.435e-05,
        "meta_mean_motion_ddot": 0,
        "tle_line1": "1 31250U 99025BMG 25342.85249466  .00003435  00000+0  20657-2 0  9992",
        "tle_line2": "2 31250  98.3877 193.1852 0133743 308.9519  49.9792 14.03062668954633"
      },
      "geometry": {
        "type": "Point",
        "coordinates": [
          6.049518856566959,
          -50.56556707423917
        ]
      }
    },
    {
      "type": "Feature",
      "properties": {
        "norad_id": 31252,
        "name": "FENGYUN 1C DEB",
        "group": "fengyun-1c-debris",
        "lat": -55.479747635484955,
        "lon": 172.8982307545032,
        "alt_km": 692.7660936318343,
        "timestamp": "2025-12-12T07:43:20.795334+00:00",
        "meta_object_name": "FENGYUN 1C DEB",
        "meta_object_id": "1999-025BMJ",
        "meta_epoch": "2025-12-11T07:17:42.282240",
        "meta_mean_motion": 14.40167992,
        "meta_eccentricity": 0.02136881,
        "meta_inclination": 98.3174,
        "meta_ra_of_asc_node": 4.1887,
        "meta_arg_of_pericenter": 176.5367,
        "meta_mean_anomaly": 183.7361,
        "meta_ephemeris_type": 0,
        "meta_classification_type": "U",
        "meta_norad_cat_id": 31252,
        "meta_element_set_no": 999,
        "meta_rev_at_epoch": 97186,
        "meta_bstar": 0.00063403267,
        "meta_mean_motion_dot": 2.575e-05,
        "meta_mean_motion_ddot": 0,
        "tle_line1": "1 31252U 99025BMJ 25345.30396160  .00002575  00000+0  63403-3 0  9992",
        "tle_line2": "2 31252  98.3174   4.1887 0213688 176.5367 183.7361 14.40167992971861"
      },
      "geometry": {
        "type": "Point",
        "coordinates": [
          172.8982307545032,
          -55.479747635484955
        ]
      }
    },
    {
      "type": "Feature",
      "properties": {
        "norad_id": 31253,
        "name": "FENGYUN 1C DEB",
        "group": "fengyun-1c-debris",
        "lat": 39.47616631902437,
        "lon": 43.777199446035894,
        "alt_km": 744.177214463316,
        "timestamp": "2025-12-12T07:43:20.795344+00:00",
        "meta_object_name": "FENGYUN 1C DEB",
        "meta_object_id": "1999-025BMK",
        "meta_epoch": "2025-12-10T11:03:14.516352",
        "meta_mean_motion": 14.03597801,
        "meta_eccentricity": 0.02905912,
        "meta_inclination": 99.0776,
        "meta_ra_of_asc_node": 49.4834,
        "meta_arg_of_pericenter": 97.1731,
        "meta_mean_anomaly": 266.2566,
        "meta_ephemeris_type": 0,
        "meta_classification_type": "U",
        "meta_norad_cat_id": 31253,
        "meta_element_set_no": 999,
        "meta_rev_at_epoch": 68966,
        "meta_bstar": 0.00043343724,
        "meta_mean_motion_dot": 9.45e-06,
        "meta_mean_motion_ddot": 0,
        "tle_line1": "1 31253U 99025BMK 25344.46058468  .00000945  00000+0  43344-3 0  9996",
        "tle_line2": "2 31253  99.0776  49.4834 0290591  97.1731 266.2566 14.03597801689666"
      },
      "geometry": {
        "type": "Point",
        "coordinates": [
          43.777199446035894,
          39.47616631902437
        ]
      }
    },
    {
      "type": "Feature",
      "properties": {
        "norad_id": 31254,
        "name": "FENGYUN 1C DEB",
        "group": "fengyun-1c-debris",
        "lat": 47.13195298707433,
        "lon": 26.790514690776675,
        "alt_km": 864.4314015082491,
        "timestamp": "2025-12-12T07:43:20.795354+00:00",
        "meta_object_name": "FENGYUN 1C DEB",
        "meta_object_id": "1999-025BML",
        "meta_epoch": "2025-12-10T08:57:59.154048",
        "meta_mean_motion": 14.3634275,
        "meta_eccentricity": 0.01512321,
        "meta_inclination": 98.4618,
        "meta_ra_of_asc_node": 34.1052,
        "meta_arg_of_pericenter": 209.1278,
        "meta_mean_anomaly": 211.611,
        "meta_ephemeris_type": 0,
        "meta_classification_type": "U",
        "meta_norad_cat_id": 31254,
        "meta_element_set_no": 999,
        "meta_rev_at_epoch": 97482,
        "meta_bstar": 0.00082167547,
        "meta_mean_motion_dot": 2.692e-05,
        "meta_mean_motion_ddot": 0,
        "tle_line1": "1 31254U 99025BML 25344.37360132  .00002692  00000+0  82168-3 0  9999",
        "tle_line2": "2 31254  98.4618  34.1052 0151232 209.1278 211.6110 14.36342750974828"
      },
      "geometry": {
        "type": "Point",
        "coordinates": [
          26.790514690776675,
          47.13195298707433
        ]
      }
    },
    {
      "type": "Feature",
      "properties": {
        "norad_id": 31255,
        "name": "FENGYUN 1C DEB",
        "group": "fengyun-1c-debris",
        "lat": 9.048015206082072,
        "lon": 161.89445265996704,
        "alt_km": 682.897891623611,
        "timestamp": "2025-12-12T07:43:20.795364+00:00",
        "meta_object_name": "FENGYUN 1C DEB",
        "meta_object_id": "1999-025BMM",
        "meta_epoch": "2025-12-11T11:14:28.003488",
        "meta_mean_motion": 14.09725981,
        "meta_eccentricity": 0.027065,
        "meta_inclination": 99.3083,
        "meta_ra_of_asc_node": 162.5078,
        "meta_arg_of_pericenter": 347.0469,
        "meta_mean_anomaly": 12.3841,
        "meta_ephemeris_type": 0,
        "meta_classification_type": "U",
        "meta_norad_cat_id": 31255,
        "meta_element_set_no": 999,
        "meta_rev_at_epoch": 96783,
        "meta_bstar": 0.00042132984,
        "meta_mean_motion_dot": 9.87e-06,
        "meta_mean_motion_ddot": 0,
        "tle_line1": "1 31255U 99025BMM 25345.46837967  .00000987  00000+0  42133-3 0  9999",
        "tle_line2": "2 31255  99.3083 162.5078 0270650 347.0469  12.3841 14.09725981967830"
      },
      "geometry": {
        "type": "Point",
        "coordinates": [
          161.89445265996704,
          9.048015206082072
        ]
      }
    },
    {
      "type": "Feature",
      "properties": {
        "norad_id": 31256,
        "name": "FENGYUN 1C DEB",
        "group": "fengyun-1c-debris",
        "lat": -67.60735861877656,
        "lon": -7.7591612258151486,
        "alt_km": 1041.6894430329403,
        "timestamp": "2025-12-12T07:43:20.795374+00:00",
        "meta_object_name": "FENGYUN 1C DEB",
        "meta_object_id": "1999-025BMN",
        "meta_epoch": "2025-12-10T10:04:20.682048",
        "meta_mean_motion": 14.03237685,
        "meta_eccentricity": 0.03084006,
        "meta_inclination": 98.6795,
        "meta_ra_of_asc_node": 192.1841,
        "meta_arg_of_pericenter": 120.5435,
        "meta_mean_anomaly": 242.6554,
        "meta_ephemeris_type": 0,
        "meta_classification_type": "U",
        "meta_norad_cat_id": 31256,
        "meta_element_set_no": 999,
        "meta_rev_at_epoch": 64949,
        "meta_bstar": 0.0039409044,
        "meta_mean_motion_dot": 9.337e-05,
        "meta_mean_motion_ddot": 0,
        "tle_line1": "1 31256U 99025BMN 25344.41968382  .00009337  00000+0  39409-2 0  9999",
        "tle_line2": "2 31256  98.6795 192.1841 0308400 120.5435 242.6554 14.03237685649493"
      },
      "geometry": {
        "type": "Point",
        "coordinates": [
          -7.7591612258151486,
          -67.60735861877656
        ]
      }
    }
  ]
}